GLOBALSTAR M067         
1 32263U 07048A   24350.87957840 -.00000039  00000+0  43275-3 0  9993
2 32263  51.9706 212.3029 0001002  25.9611 346.9936 12.40662684786732
GLOBALSTAR M070         
1 32264U 07048B   24351.40845038 -.00000087  00000+0  92701-4 0  9991
2 32264  51.9767 325.3180 0000586  56.5075 109.2749 12.62307847791563
GLOBALSTAR M066         
1 32265U 07048C   24351.31276164 -.00000064  00000+0  24956-3 0  9991
2 32265  51.9645 197.6720 0001648  74.7520  96.2642 12.42168647793599
GLOBALSTAR M068         
1 32266U 07048D   24350.86374691 -.00000097  00000+0  36979-4 0  9990
2 32266  51.9863 141.0815 0002069  98.3837  66.6628 12.62811501794391
GLOBALSTAR M079         
1 37188U 10054A   24350.73194007 -.00000086  00000+0  10101-3 0  9992
2 37188  52.0056 338.2550 0000027  88.2555  82.7065 12.62268278653281
GLOBALSTAR M074         
1 37189U 10054B   24351.47197838 -.00000100  00000+0  23500-4 0  9995
2 37189  52.0034 335.3511 0000454  41.9972 134.4926 12.62260188654055
GLOBALSTAR M076         
1 37190U 10054C   24351.73508830 -.00000093  00000+0  62545-4 0  9997
2 37190  52.0048 334.7066 0000378   1.8603 169.6739 12.62274744654090
GLOBALSTAR M077         
1 37191U 10054D   24350.90099797 -.00000076  00000+0  15587-3 0  9997
2 37191  52.0081 294.0503 0000609  53.1885 345.8066 12.62268218654002
